TIANYAN 01              
1 44881U 19093C   24072.45689265  .00001239  00000+0  15747-3 0  9998
2 44881  97.8343 151.1118 0013166 280.0490  79.9238 14.83353518228707
RS-44 & BREEZE-KM R/B   
1 44909U 19096E   24071.54113544  .00000030  00000+0  83741-4 0  9991
2 44909  82.5258 169.6503 0216284 279.5322  78.1398 12.79727247196483
BY70-2                  
1 45857U 20042B   24072.52386720  .00047325  00000+0  28905-2 0  9991
2 45857  97.9123 161.5071 0008419 195.9293 164.1672 15.10089859199870
SALSAT                  
1 46495U 20068K   24072.47103113  .00006112  00000+0  36572-3 0  9994
2 46495  97.8069  29.5311 0012284 286.6454  73.3426 15.11362085189692
RADFXSAT-2 (AO-109)     
1 47311U 21002C   24072.35637825  .00188831  00000+0  11711-2 0  9996
2 47311  60.6663  83.7303 0025228  72.4128 287.9737 15.75702534176064
UVSQ-SAT                
1 47438U 21006AB  24072.12845167  .00029162  00000+0  78307-3 0  9991
2 47438  97.3416 132.0102 0007585 196.0022 164.0984 15.37863859173774
LEDSAT                  
1 49069U 21073D   24072.46472773  .00011677  00000+0  52744-3 0  9992
2 49069  97.4473 144.4867 0019719 262.3939  97.5057 15.20948489141738
XW-3 (CAS-9)            
1 50466U 21131B   24072.51126860  .00000741  00000+0  25222-3 0  9990
2 50466  98.5301 158.0506 0005055  64.9866 295.1846 14.39411802116093
TEVEL-3                 
1 50988U 22002E   24072.46423183  .00051730  00000+0  10889-2 0  9995
2 50988  97.3921 145.2554 0003560 351.5239   8.5949 15.45115297120021
TEVEL-8                 
1 50989U 22002F   24072.49744209  .00052547  00000+0  11102-2 0  9990
2 50989  97.3939 145.3752 0003552 348.3750  11.7416 15.45001987120020
TEVEL-5                 
1 50998U 22002Q   24072.44147141  .00058640  00000+0  11399-2 0  9995
2 50998  97.3912 146.1307 0004154 338.3441  21.7633 15.47408389120088
TEVEL-6                 
1 50999U 22002R   24072.44269797  .00057408  00000+0  11185-2 0  9992
2 50999  97.3911 146.1141 0004157 337.9761  22.1309 15.47347700120081
TEVEL-1                 
1 51013U 22002AF  24072.48590018  .00056117  00000+0  11848-2 0  9999
2 51013  97.3914 145.1635 0003475 348.7907  11.3264 15.45006283120023
TEVEL-7                 
1 51062U 22002CG  24072.49123144  .00055654  00000+0  11719-2 0  9998
2 51062  97.3933 145.3407 0003556 347.9639  12.1524 15.45086464120027
TEVEL-4                 
1 51063U 22002CH  24072.45065722  .00050106  00000+0  10635-2 0  9995
2 51063  97.3932 145.2339 0003511 348.9576  11.1595 15.44878239120016
TEVEL-2                 
1 51069U 22002CP  24072.46376701  .00050913  00000+0  10708-2 0  9991
2 51069  97.3918 145.2217 0003500 350.7105   9.4078 15.45144071120026
GREENCUBE               
1 53106U 22080B   24069.66819003 -.00000003  00000+0  00000+0 0  9993
2 53106  70.1332 227.0918 0008274 126.4127 233.7296  6.42557646 38879
MONITOR-1 (RS32S)       
1 53374U 22096E   24071.98442121  .00646816  18244-3  14980-2 0  9993
2 53374  97.3747 352.0568 0007042 119.1273 241.0709 15.97134347 89449
KUZBASS-300 (RS34S)     
1 53375U 22096F   24072.48859182  .00109131  00000+0  10850-2 0  9992
2 53375  97.3924 349.3199 0004066  99.6027 260.5692 15.65375434 89297
UTMN (RS23S)            
1 53376U 22096G   24072.50718356  .00133714  00000+0  11417-2 0  9997
2 53376  97.3907 350.0149 0004055  95.0683 265.1041 15.69078759 89348
MIET-AIS (RS28S)        
1 53377U 22096H   24072.51457876  .00081420  00000+0  96817-3 0  9990
2 53377  97.3956 348.7280 0003569  93.5888 266.5778 15.60871203 89250
KAI-1 (RS26S)           
1 53378U 22096J   24072.52790196  .00046109  00000+0  73215-3 0  9999
2 53378  97.4001 347.2829 0002626  79.2423 280.9125 15.53214538 89154
ISOI (RS19S)            
1 53381U 22096M   24072.52589696  .00086206  00000+0  96506-3 0  9994
2 53381  97.3975 349.4588 0004676 104.7832 255.3944 15.62419057 89303
CUBESX-HSE-2 (RS21S)    
1 53383U 22096P   24072.48887872  .00125360  00000+0  10981-2 0  9995
2 53383  97.3908 350.2195 0006092 108.8476 251.3447 15.68465318 89354
SIREN (RS30S)           
1 53384U 22096Q   24072.50647256  .00065524  00000+0  87602-3 0  9999
2 53384  97.3976 348.4610 0004836 110.1943 249.9833 15.57819127 89238
CAS-5A (FO-118)         
1 54684U 22167C   24072.48144358  .00021586  00000+0  89053-3 0  9996
2 54684  97.5915 215.5627 0011181 125.1535 235.0750 15.24015009 69540
STRATOSAT-TK 1 (RS52S)  
1 57167U 23091B   24072.51118848  .00010173  00000+0  64557-3 0  9993
2 57167  97.6246 126.0395 0017370  91.8137 268.5081 15.08962053 38960
UMKA 1 (RS40S)          
1 57172U 23091G   24072.51155823  .00004196  00000+0  29033-3 0  9991
2 57172  97.6247 125.5776 0018596  91.6529 268.6828 15.06098110 38937
CUBESX-HSE 3 (RS42S)    
1 57178U 23091N   24072.46918594  .00006142  00000+0  41380-3 0  9995
2 57178  97.6294 125.7579 0019507  87.0214 273.3245 15.06888399 38933
MONITOR-4 (RS57S)       
1 57182U 23091S   24072.43157616  .00006615  00000+0  44921-3 0  9996
2 57182  97.6273 125.6148 0019391  87.9293 272.4154 15.06566829 38922
MONITOR-2 (RS39S)       
1 57184U 23091U   24072.48892695  .00004254  00000+0  29201-3 0  9997
2 57184  97.6287 125.8621 0015845  81.8600 278.4424 15.06423958 38945
SVYATOBOR 1 (RS60S)     
1 57187U 23091X   24072.39397545  .00004819  00000+0  32129-3 0  9994
2 57187  97.6286 125.9921 0015602  80.5895 279.7096 15.07443845 38941
VIZARD-METEO (RS38S)    
1 57189U 23091Z   24072.49071084  .00007056  00000+0  45644-3 0  9996
2 57189  97.6279 126.2996 0014217  78.3664 281.9159 15.08416043 38970
NANOZOND 1 (RS49S)      
1 57190U 23091AA  24072.48994077  .00009751  00000+0  60280-3 0  9990
2 57190  97.6255 126.5201 0012667  83.6661 276.6011 15.09991712 38993
POLYTECH-UNIVERSE 3 (R*)
1 57191U 23091AB  24072.48751789  .00004542  00000+0  31186-3 0  9998
2 57191  97.6254 125.6014 0021406  97.5532 262.8128 15.06294110 38932
UTMN 2 (RS27S)          
1 57203U 23091AP  24072.52221086  .00005557  00000+0  36357-3 0  9991
2 57203  97.6275 126.2566 0014735  78.6840 281.6043 15.08085569 38974
ARCCUBE 1 (RS25S)       
1 57205U 23091AR  24072.52097326  .00010366  00000+0  63004-3 0  9994
2 57205  97.6225 126.5690 0012925  85.1092 275.1613 15.10588339 39005
KUZGTU 1 (RS47S)        
1 57217U 23091AV  24072.40442502  .00005987  00000+0  40432-3 0  9997
2 57217  97.6270 125.6071 0019448  88.4050 271.9405 15.06811750 38922
HADES-D (SO-121)        
1 58567U 23174CY  24071.45776408  .00026625  00000+0  12372-2 0  9990
2 58567  97.4646 147.6177 0014640 210.1729 149.8664 15.19867409 18893
